{
    "links": {
        "self": "http://www.neowsapp.com/rest/v1/neo/3291226?api_key=iIulBulltgU6a56xZRHN4H3l9WmuAYTsLGpBGhQ2"
    },
    "id": "3291226",
    "neo_reference_id": "3291226",
    "name": "(2005 SR9)",
    "designation": "2005 SR9",
    "nasa_jpl_url": "http://ssd.jpl.nasa.gov/sbdb.cgi?sstr=3291226",
    "absolute_magnitude_h": 20.5,
    "estimated_diameter": {
        "kilometers": {
            "estimated_diameter_min": 0.2111324448,
            "estimated_diameter_max": 0.4721064988
        },
        "meters": {
            "estimated_diameter_min": 211.1324447897,
            "estimated_diameter_max": 472.1064988055
        },
        "miles": {
            "estimated_diameter_min": 0.1311915784,
            "estimated_diameter_max": 0.2933532873
        },
        "feet": {
            "estimated_diameter_min": 692.6917701639,
            "estimated_diameter_max": 1548.9058855411
        }
    },
    "is_potentially_hazardous_asteroid": false,
    "close_approach_data": [
        {
            "close_approach_date": "1992-07-10",
            "close_approach_date_full": "1992-Jul-10 01:23",
            "epoch_date_close_approach": 710731380000,
            "relative_velocity": {
                "kilometers_per_second": "13.4236611657",
                "kilometers_per_hour": "48325.1801966212",
                "miles_per_hour": "30027.3876616172"
            },
            "miss_distance": {
                "astronomical": "0.0841423534",
                "lunar": "32.7313754726",
                "kilometers": "12587516.845427258",
                "miles": "7821520.2790338404"
            },
            "orbiting_body": "Mars"
        },
        {
            "close_approach_date": "2005-10-23",
            "close_approach_date_full": "2005-Oct-23 04:12",
            "epoch_date_close_approach": 1130040720000,
            "relative_velocity": {
                "kilometers_per_second": "9.9906966431",
                "kilometers_per_hour": "35966.5079150371",
                "miles_per_hour": "22348.189320874"
            },
            "miss_distance": {
                "astronomical": "0.4125404291",
                "lunar": "160.4782269199",
                "kilometers": "61715169.482246017",
                "miles": "38348028.0945763546"
            },
            "orbiting_body": "Earth"
        }
    ],
    "orbital_data": {
        "orbit_id": "3",
        "orbit_determination_date": "2017-04-08 20:05:38",
        "first_observation_date": "2005-09-26",
        "last_observation_date": "2005-10-25",
        "data_arc_in_days": 29,
        "observations_used": 29,
        "orbit_uncertainty": "6",
        "minimum_orbit_intersection": ".412847",
        "jupiter_tisserand_invariant": "3.463",
        "epoch_osculation": "2459000.5",
        "eccentricity": ".4135381960285832",
        "semi_major_axis": "2.216662390044554",
        "inclination": "20.19843234338362",
        "ascending_node_longitude": "181.5357246843333",
        "orbital_period": "1205.445988133092",
        "perihelion_distance": "1.299987824061121",
        "perihelion_argument": "240.5124737984893",
        "aphelion_distance": "3.133336956027986",
        "perihelion_time": "2458533.508350800355",
        "mean_anomaly": "139.4645594799645",
        "mean_motion": ".2986446539654107",
        "equinox": "J2000",
        "orbit_class": {
            "orbit_class_type": "AMO",
            "orbit_class_description": "Near-Earth asteroid orbits similar to that of 1221 Amor",
            "orbit_class_range": "1.017 AU < q (perihelion) < 1.3 AU"
        }
    },
    "is_sentry_object": false
}